[{"OBJECT_NAME":"SUPERVIEW-1 03","OBJECT_ID":"2018-002A","EPOCH":"2026-03-09T22:14:33.880992","MEAN_MOTION":15.35916978,"ECCENTRICITY":0.00509393,"INCLINATION":97.3162,"RA_OF_ASC_NODE":154.1458,"ARG_OF_PERICENTER":177.0269,"MEAN_ANOMALY":183.1288,"EPHEMERIS_TYPE":0,"CLASSIFICATION_TYPE":"U","NORAD_CAT_ID":43099,"ELEMENT_SET_NO":999,"REV_AT_EPOCH":45311,"BSTAR":0.00062641306,"MEAN_MOTION_DOT":0.00022818,"MEAN_MOTION_DDOT":0},{"OBJECT_NAME":"STARLINK-35553","OBJECT_ID":"2025-237G","EPOCH":"2026-03-09T07:42:07.087968","MEAN_MOTION":15.30197444,"ECCENTRICITY":0.0001544,"INCLINATION":53.1614,"RA_OF_ASC_NODE":41.373,"ARG_OF_PERICENTER":85.7093,"MEAN_ANOMALY":274.4084,"EPHEMERIS_TYPE":0,"CLASSIFICATION_TYPE":"U","NORAD_CAT_ID":66120,"ELEMENT_SET_NO":999,"REV_AT_EPOCH":2255,"BSTAR":0.00092205888,"MEAN_MOTION_DOT":0.00027047,"MEAN_MOTION_DDOT":0}]
